[{"OBJECT_NAME":"LAPAN-A3","OBJECT_ID":"2016-040E","EPOCH":"2026-03-09T23:01:57.724896","MEAN_MOTION":15.3238951,"ECCENTRICITY":0.00109839,"INCLINATION":97.1488,"RA_OF_ASC_NODE":68.4254,"ARG_OF_PERICENTER":22.062,"MEAN_ANOMALY":338.1093,"EPHEMERIS_TYPE":0,"CLASSIFICATION_TYPE":"U","NORAD_CAT_ID":41603,"ELEMENT_SET_NO":999,"REV_AT_EPOCH":53961,"BSTAR":0.00017567445,"MEAN_MOTION_DOT":5.428e-5,"MEAN_MOTION_DDOT":0},{"OBJECT_NAME":"STARLINK-31328","OBJECT_ID":"2024-020E","EPOCH":"2026-03-09T22:45:44.672544","MEAN_MOTION":15.30221127,"ECCENTRICITY":9.287e-5,"INCLINATION":53.1605,"RA_OF_ASC_NODE":306.0129,"ARG_OF_PERICENTER":103.9985,"MEAN_ANOMALY":256.1119,"EPHEMERIS_TYPE":0,"CLASSIFICATION_TYPE":"U","NORAD_CAT_ID":58880,"ELEMENT_SET_NO":999,"REV_AT_EPOCH":11832,"BSTAR":0.00017324887,"MEAN_MOTION_DOT":4.779e-5,"MEAN_MOTION_DDOT":0}]
